STARLINK-36050          
1 66602U 25270Q   25360.66899753  .00064199  00000+0  15287-2 0  9998
2 66602  42.9995 112.4296 0000419 251.3253 108.7558 15.40750684  6392
STARLINK-36048          
1 66603U 25270R   25360.71364911  .00056560  00000+0  13489-2 0  9993
2 66603  42.9999 111.9022 0004775 249.7133 110.3211 15.40743551  6407
STARLINK-35977          
1 66604U 25270S   25361.35746520  .00061819  00000+0  14742-2 0  9991
2 66604  42.9989 108.1310 0001683 264.0626  96.0038 15.40720018  6609
STARLINK-36052          
1 66605U 25270T   25361.01988355  .00061558  00000+0  14675-2 0  9994
2 66605  42.9984 109.8967 0001033 271.8255  88.2483 15.40732543  6551
STARLINK-36063          
1 66606U 25270U   25361.32834352  .00073736  00000+0  17540-2 0  9991
2 66606  42.9989 107.9067 0001358 296.1460  63.9257 15.40724102  6602
STARLINK-35993          
1 66607U 25270V   25361.01764808  .00049906  00000+0  11936-2 0  9991
2 66607  42.9959 109.8792 0000480  40.5095 319.5797 15.40714883  6453
STARLINK-36036          
1 66608U 25270W   25361.32609950  .00061440  00000+0  14632-2 0  9995
2 66608  42.9996 107.8876 0004320 291.6857  68.3539 15.40755893  6446
STARLINK-36034          
1 66609U 25270X   25361.32162106  .00058804  00000+0  14016-2 0  9999
2 66609  42.9950 107.8509 0001217 145.2618 214.8318 15.40754319  6446
STARLINK-35680          
1 66610U 25270Y   25360.62418970  .00070534  00000+0  16797-2 0  9998
2 66610  42.9985 112.0805 0001560 278.6419  81.4261 15.40709304  6601
STARLINK-35583          
1 66611U 25270Z   25361.33281983  .00043114  00000+0  10321-2 0  9991
2 66611  42.9992 107.9414 0000971 289.3170  70.7581 15.40742598  6717
STARLINK-36039          
1 66612U 25270AA  25360.34036770  .00059376  00000+0  14141-2 0  9995
2 66612  42.9999 114.2604 0001563 261.7567  98.3112 15.40773880  6443
STARLINK-36037          
1 66613U 25270AB  25360.66002262  .00049089  00000+0  11730-2 0  9991
2 66613  43.0056 112.3618 0004343 287.9955  72.0428 15.40739530  6492
