CCSDS_OMM_VERS = 2.0
CREATION_DATE  = 
ORIGINATOR     = 

OBJECT_NAME    = STARLINK-36050
OBJECT_ID      = 2025-270Q
CENTER_NAME    = EARTH
REF_FRAME      = TEME
TIME_SYSTEM    = UTC
MEAN_ELEMENT_THEORY = SGP/SGP4

EPOCH          = 2025-12-26T16:03:21.386592
MEAN_MOTION    = 15.40750684
ECCENTRICITY   = .00004193
INCLINATION    = 42.9995
RA_OF_ASC_NODE = 112.4296
ARG_OF_PERICENTER = 251.3253
MEAN_ANOMALY   = 108.7558

EPHEMERIS_TYPE = 0
CLASSIFICATION_TYPE = U
NORAD_CAT_ID   = 66602
ELEMENT_SET_NO = 999
REV_AT_EPOCH   = 639
BSTAR          = .15286524E-2
MEAN_MOTION_DOT = .64199E-3
MEAN_MOTION_DDOT = 0

CCSDS_OMM_VERS = 2.0
CREATION_DATE  = 
ORIGINATOR     = 

OBJECT_NAME    = STARLINK-36048
OBJECT_ID      = 2025-270R
CENTER_NAME    = EARTH
REF_FRAME      = TEME
TIME_SYSTEM    = UTC
MEAN_ELEMENT_THEORY = SGP/SGP4

EPOCH          = 2025-12-26T17:07:39.283104
MEAN_MOTION    = 15.40743551
ECCENTRICITY   = .00047753
INCLINATION    = 42.9999
RA_OF_ASC_NODE = 111.9022
ARG_OF_PERICENTER = 249.7133
MEAN_ANOMALY   = 110.3211

EPHEMERIS_TYPE = 0
CLASSIFICATION_TYPE = U
NORAD_CAT_ID   = 66603
ELEMENT_SET_NO = 999
REV_AT_EPOCH   = 640
BSTAR          = .13488776E-2
MEAN_MOTION_DOT = .5656E-3
MEAN_MOTION_DDOT = 0

CCSDS_OMM_VERS = 2.0
CREATION_DATE  = 
ORIGINATOR     = 

OBJECT_NAME    = STARLINK-35977
OBJECT_ID      = 2025-270S
CENTER_NAME    = EARTH
REF_FRAME      = TEME
TIME_SYSTEM    = UTC
MEAN_ELEMENT_THEORY = SGP/SGP4

EPOCH          = 2025-12-27T08:34:44.993280
MEAN_MOTION    = 15.40720018
ECCENTRICITY   = .0001683
INCLINATION    = 42.9989
RA_OF_ASC_NODE = 108.1310
ARG_OF_PERICENTER = 264.0626
MEAN_ANOMALY   = 96.0038

EPHEMERIS_TYPE = 0
CLASSIFICATION_TYPE = U
NORAD_CAT_ID   = 66604
ELEMENT_SET_NO = 999
REV_AT_EPOCH   = 660
BSTAR          = .14742E-2
MEAN_MOTION_DOT = .61819E-3
MEAN_MOTION_DDOT = 0

CCSDS_OMM_VERS = 2.0
CREATION_DATE  = 
ORIGINATOR     = 

OBJECT_NAME    = STARLINK-36052
OBJECT_ID      = 2025-270T
CENTER_NAME    = EARTH
REF_FRAME      = TEME
TIME_SYSTEM    = UTC
MEAN_ELEMENT_THEORY = SGP/SGP4

EPOCH          = 2025-12-27T00:28:37.938720
MEAN_MOTION    = 15.40732543
ECCENTRICITY   = .00010337
INCLINATION    = 42.9984
RA_OF_ASC_NODE = 109.8967
ARG_OF_PERICENTER = 271.8255
MEAN_ANOMALY   = 88.2483

EPHEMERIS_TYPE = 0
CLASSIFICATION_TYPE = U
NORAD_CAT_ID   = 66605
ELEMENT_SET_NO = 999
REV_AT_EPOCH   = 655
BSTAR          = .14674597E-2
MEAN_MOTION_DOT = .61558E-3
MEAN_MOTION_DDOT = 0

CCSDS_OMM_VERS = 2.0
CREATION_DATE  = 
ORIGINATOR     = 

OBJECT_NAME    = STARLINK-36063
OBJECT_ID      = 2025-270U
CENTER_NAME    = EARTH
REF_FRAME      = TEME
TIME_SYSTEM    = UTC
MEAN_ELEMENT_THEORY = SGP/SGP4

EPOCH          = 2025-12-27T07:52:48.880128
MEAN_MOTION    = 15.40724102
ECCENTRICITY   = .0001358
INCLINATION    = 42.9989
RA_OF_ASC_NODE = 107.9067
ARG_OF_PERICENTER = 296.1460
MEAN_ANOMALY   = 63.9257

EPHEMERIS_TYPE = 0
CLASSIFICATION_TYPE = U
NORAD_CAT_ID   = 66606
ELEMENT_SET_NO = 999
REV_AT_EPOCH   = 660
BSTAR          = .1754E-2
MEAN_MOTION_DOT = .73736E-3
MEAN_MOTION_DDOT = 0

CCSDS_OMM_VERS = 2.0
CREATION_DATE  = 
ORIGINATOR     = 

OBJECT_NAME    = STARLINK-35993
OBJECT_ID      = 2025-270V
CENTER_NAME    = EARTH
REF_FRAME      = TEME
TIME_SYSTEM    = UTC
MEAN_ELEMENT_THEORY = SGP/SGP4

EPOCH          = 2025-12-27T00:25:24.794112
MEAN_MOTION    = 15.40714883
ECCENTRICITY   = .00004801
INCLINATION    = 42.9959
RA_OF_ASC_NODE = 109.8792
ARG_OF_PERICENTER = 40.5095
MEAN_ANOMALY   = 319.5797

EPHEMERIS_TYPE = 0
CLASSIFICATION_TYPE = U
NORAD_CAT_ID   = 66607
ELEMENT_SET_NO = 999
REV_AT_EPOCH   = 645
BSTAR          = .11935754E-2
MEAN_MOTION_DOT = .49906E-3
MEAN_MOTION_DDOT = 0

CCSDS_OMM_VERS = 2.0
CREATION_DATE  = 
ORIGINATOR     = 

OBJECT_NAME    = STARLINK-36036
OBJECT_ID      = 2025-270W
CENTER_NAME    = EARTH
REF_FRAME      = TEME
TIME_SYSTEM    = UTC
MEAN_ELEMENT_THEORY = SGP/SGP4

EPOCH          = 2025-12-27T07:49:34.996800
MEAN_MOTION    = 15.40755893
ECCENTRICITY   = .000432
INCLINATION    = 42.9996
RA_OF_ASC_NODE = 107.8876
ARG_OF_PERICENTER = 291.6857
MEAN_ANOMALY   = 68.3539

EPHEMERIS_TYPE = 0
CLASSIFICATION_TYPE = U
NORAD_CAT_ID   = 66608
ELEMENT_SET_NO = 999
REV_AT_EPOCH   = 644
BSTAR          = .14632E-2
MEAN_MOTION_DOT = .6144E-3
MEAN_MOTION_DDOT = 0

CCSDS_OMM_VERS = 2.0
CREATION_DATE  = 
ORIGINATOR     = 

OBJECT_NAME    = STARLINK-36034
OBJECT_ID      = 2025-270X
CENTER_NAME    = EARTH
REF_FRAME      = TEME
TIME_SYSTEM    = UTC
MEAN_ELEMENT_THEORY = SGP/SGP4

EPOCH          = 2025-12-27T07:43:08.059584
MEAN_MOTION    = 15.40754319
ECCENTRICITY   = .0001217
INCLINATION    = 42.9950
RA_OF_ASC_NODE = 107.8509
ARG_OF_PERICENTER = 145.2618
MEAN_ANOMALY   = 214.8318

EPHEMERIS_TYPE = 0
CLASSIFICATION_TYPE = U
NORAD_CAT_ID   = 66609
ELEMENT_SET_NO = 999
REV_AT_EPOCH   = 644
BSTAR          = .14016E-2
MEAN_MOTION_DOT = .58804E-3
MEAN_MOTION_DDOT = 0

CCSDS_OMM_VERS = 2.0
CREATION_DATE  = 
ORIGINATOR     = 

OBJECT_NAME    = STARLINK-35680
OBJECT_ID      = 2025-270Y
CENTER_NAME    = EARTH
REF_FRAME      = TEME
TIME_SYSTEM    = UTC
MEAN_ELEMENT_THEORY = SGP/SGP4

EPOCH          = 2025-12-26T14:58:49.990080
MEAN_MOTION    = 15.40709304
ECCENTRICITY   = .000156
INCLINATION    = 42.9985
RA_OF_ASC_NODE = 112.0805
ARG_OF_PERICENTER = 278.6419
MEAN_ANOMALY   = 81.4261

EPHEMERIS_TYPE = 0
CLASSIFICATION_TYPE = U
NORAD_CAT_ID   = 66610
ELEMENT_SET_NO = 999
REV_AT_EPOCH   = 660
BSTAR          = .16797E-2
MEAN_MOTION_DOT = .70534E-3
MEAN_MOTION_DDOT = 0

CCSDS_OMM_VERS = 2.0
CREATION_DATE  = 
ORIGINATOR     = 

OBJECT_NAME    = STARLINK-35583
OBJECT_ID      = 2025-270Z
CENTER_NAME    = EARTH
REF_FRAME      = TEME
TIME_SYSTEM    = UTC
MEAN_ELEMENT_THEORY = SGP/SGP4

EPOCH          = 2025-12-27T07:59:15.633312
MEAN_MOTION    = 15.40742598
ECCENTRICITY   = .0000971
INCLINATION    = 42.9992
RA_OF_ASC_NODE = 107.9414
ARG_OF_PERICENTER = 289.3170
MEAN_ANOMALY   = 70.7581

EPHEMERIS_TYPE = 0
CLASSIFICATION_TYPE = U
NORAD_CAT_ID   = 66611
ELEMENT_SET_NO = 999
REV_AT_EPOCH   = 671
BSTAR          = .10321E-2
MEAN_MOTION_DOT = .43114E-3
MEAN_MOTION_DDOT = 0

CCSDS_OMM_VERS = 2.0
CREATION_DATE  = 
ORIGINATOR     = 

OBJECT_NAME    = STARLINK-36039
OBJECT_ID      = 2025-270AA
CENTER_NAME    = EARTH
REF_FRAME      = TEME
TIME_SYSTEM    = UTC
MEAN_ELEMENT_THEORY = SGP/SGP4

EPOCH          = 2025-12-26T08:10:07.769280
MEAN_MOTION    = 15.40773880
ECCENTRICITY   = .0001563
INCLINATION    = 42.9999
RA_OF_ASC_NODE = 114.2604
ARG_OF_PERICENTER = 261.7567
MEAN_ANOMALY   = 98.3112

EPHEMERIS_TYPE = 0
CLASSIFICATION_TYPE = U
NORAD_CAT_ID   = 66612
ELEMENT_SET_NO = 999
REV_AT_EPOCH   = 644
BSTAR          = .14141E-2
MEAN_MOTION_DOT = .59376E-3
MEAN_MOTION_DDOT = 0

CCSDS_OMM_VERS = 2.0
CREATION_DATE  = 
ORIGINATOR     = 

OBJECT_NAME    = STARLINK-36037
OBJECT_ID      = 2025-270AB
CENTER_NAME    = EARTH
REF_FRAME      = TEME
TIME_SYSTEM    = UTC
MEAN_ELEMENT_THEORY = SGP/SGP4

EPOCH          = 2025-12-26T15:50:25.954368
MEAN_MOTION    = 15.40739530
ECCENTRICITY   = .00043437
INCLINATION    = 43.0056
RA_OF_ASC_NODE = 112.3618
ARG_OF_PERICENTER = 287.9955
MEAN_ANOMALY   = 72.0428

EPHEMERIS_TYPE = 0
CLASSIFICATION_TYPE = U
NORAD_CAT_ID   = 66613
ELEMENT_SET_NO = 999
REV_AT_EPOCH   = 649
BSTAR          = .11730413E-2
MEAN_MOTION_DOT = .49089E-3
MEAN_MOTION_DDOT = 0

